TDRS 11                 
1 39070U 13004A   26095.71046226  .00000082  00000+0  00000+0 0  9995
2 39070   3.4151  29.9660 0004487 357.4571 247.9291  1.00273797 45966
TDRS 12                 
1 39504U 14004A   26095.73680904 -.00000267  00000+0  00000+0 0  9993
2 39504   3.9074  17.8318 0002607 257.8458 142.6103  1.00277394 43555
GPM-CORE                
1 39574U 14009C   26095.83429899  .00014942  00000+0  32590-3 0  9997
2 39574  64.9729 190.5403 0012940 255.3039 104.6667 15.44356097686635
MMS 1                   
1 40482U 15011A   26095.91670139 -.00001300  00000+0  00000+0 0  9997
2 40482  71.1425 349.8001 8382986 165.8517 126.5807  0.28348648  1308
MMS 2                   
1 40483U 15011B   26095.91670139 -.00001300  00000+0  00000+0 0  9998
2 40483  71.1427 349.8022 8383734 165.8577 126.5656  0.28348667  1305
MMS 3                   
1 40484U 15011C   26095.91670139 -.00001300  00000+0  00000+0 0  9999
2 40484  71.1453 349.8068 8382987 165.8520 126.5702  0.28348624  1307
MMS 4                   
1 40485U 15011D   26095.91670139 -.00001300  00000+0  00000+0 0  9990
2 40485  71.1417 349.8025 8382486 165.8588 126.5600  0.28348687  1305
TDRS 13                 
1 42915U 17047A   26095.81402892 -.00000097  00000+0  00000+0 0  9991
2 42915   3.4360   0.8925 0012212  97.2498  17.5427  1.00272517 31623
NOAA 20 (JPSS-1)        
1 43013U 17073A   26095.82415245  .00000110  00000+0  72922-4 0  9999
2 43013  98.7725  35.9469 0002046 101.0324 259.1082 14.19543528434202
