[{"OBJECT_NAME":"TDRS 11","OBJECT_ID":"2013-004A","EPOCH":"2026-04-05T17:03:03.939264","MEAN_MOTION":1.00273797,"ECCENTRICITY":0.0004487,"INCLINATION":3.4151,"RA_OF_ASC_NODE":29.966,"ARG_OF_PERICENTER":357.4571,"MEAN_ANOMALY":247.9291,"EPHEMERIS_TYPE":0,"CLASSIFICATION_TYPE":"U","NORAD_CAT_ID":39070,"ELEMENT_SET_NO":999,"REV_AT_EPOCH":4596,"BSTAR":0,"MEAN_MOTION_DOT":8.2e-7,"MEAN_MOTION_DDOT":0},{"OBJECT_NAME":"TDRS 12","OBJECT_ID":"2014-004A","EPOCH":"2026-04-05T17:41:00.301056","MEAN_MOTION":1.00277394,"ECCENTRICITY":0.0002607,"INCLINATION":3.9074,"RA_OF_ASC_NODE":17.8318,"ARG_OF_PERICENTER":257.8458,"MEAN_ANOMALY":142.6103,"EPHEMERIS_TYPE":0,"CLASSIFICATION_TYPE":"U","NORAD_CAT_ID":39504,"ELEMENT_SET_NO":999,"REV_AT_EPOCH":4355,"BSTAR":0,"MEAN_MOTION_DOT":-2.67e-6,"MEAN_MOTION_DDOT":0},{"OBJECT_NAME":"GPM-CORE","OBJECT_ID":"2014-009C","EPOCH":"2026-04-05T20:01:23.432736","MEAN_MOTION":15.44356097,"ECCENTRICITY":0.001294,"INCLINATION":64.9729,"RA_OF_ASC_NODE":190.5403,"ARG_OF_PERICENTER":255.3039,"MEAN_ANOMALY":104.6667,"EPHEMERIS_TYPE":0,"CLASSIFICATION_TYPE":"U","NORAD_CAT_ID":39574,"ELEMENT_SET_NO":999,"REV_AT_EPOCH":68663,"BSTAR":0.0003259,"MEAN_MOTION_DOT":0.00014942,"MEAN_MOTION_DDOT":0},{"OBJECT_NAME":"MMS 1","OBJECT_ID":"2015-011A","EPOCH":"2026-04-05T22:00:03.000096","MEAN_MOTION":0.28348648,"ECCENTRICITY":0.8382986,"INCLINATION":71.1425,"RA_OF_ASC_NODE":349.8001,"ARG_OF_PERICENTER":165.8517,"MEAN_ANOMALY":126.5807,"EPHEMERIS_TYPE":0,"CLASSIFICATION_TYPE":"U","NORAD_CAT_ID":40482,"ELEMENT_SET_NO":999,"REV_AT_EPOCH":130,"BSTAR":0,"MEAN_MOTION_DOT":-1.3e-5,"MEAN_MOTION_DDOT":0},{"OBJECT_NAME":"MMS 2","OBJECT_ID":"2015-011B","EPOCH":"2026-04-05T22:00:03.000096","MEAN_MOTION":0.28348667,"ECCENTRICITY":0.8383734,"INCLINATION":71.1427,"RA_OF_ASC_NODE":349.8022,"ARG_OF_PERICENTER":165.8577,"MEAN_ANOMALY":126.5656,"EPHEMERIS_TYPE":0,"CLASSIFICATION_TYPE":"U","NORAD_CAT_ID":40483,"ELEMENT_SET_NO":999,"REV_AT_EPOCH":130,"BSTAR":0,"MEAN_MOTION_DOT":-1.3e-5,"MEAN_MOTION_DDOT":0},{"OBJECT_NAME":"MMS 3","OBJECT_ID":"2015-011C","EPOCH":"2026-04-05T22:00:03.000096","MEAN_MOTION":0.28348624,"ECCENTRICITY":0.8382987,"INCLINATION":71.1453,"RA_OF_ASC_NODE":349.8068,"ARG_OF_PERICENTER":165.852,"MEAN_ANOMALY":126.5702,"EPHEMERIS_TYPE":0,"CLASSIFICATION_TYPE":"U","NORAD_CAT_ID":40484,"ELEMENT_SET_NO":999,"REV_AT_EPOCH":130,"BSTAR":0,"MEAN_MOTION_DOT":-1.3e-5,"MEAN_MOTION_DDOT":0},{"OBJECT_NAME":"MMS 4","OBJECT_ID":"2015-011D","EPOCH":"2026-04-05T22:00:03.000096","MEAN_MOTION":0.28348687,"ECCENTRICITY":0.8382486,"INCLINATION":71.1417,"RA_OF_ASC_NODE":349.8025,"ARG_OF_PERICENTER":165.8588,"MEAN_ANOMALY":126.56,"EPHEMERIS_TYPE":0,"CLASSIFICATION_TYPE":"U","NORAD_CAT_ID":40485,"ELEMENT_SET_NO":999,"REV_AT_EPOCH":130,"BSTAR":0,"MEAN_MOTION_DOT":-1.3e-5,"MEAN_MOTION_DDOT":0},{"OBJECT_NAME":"TDRS 13","OBJECT_ID":"2017-047A","EPOCH":"2026-04-05T19:32:12.098688","MEAN_MOTION":1.00272517,"ECCENTRICITY":0.0012212,"INCLINATION":3.436,"RA_OF_ASC_NODE":0.8925,"ARG_OF_PERICENTER":97.2498,"MEAN_ANOMALY":17.5427,"EPHEMERIS_TYPE":0,"CLASSIFICATION_TYPE":"U","NORAD_CAT_ID":42915,"ELEMENT_SET_NO":999,"REV_AT_EPOCH":3162,"BSTAR":0,"MEAN_MOTION_DOT":-9.7e-7,"MEAN_MOTION_DDOT":0},{"OBJECT_NAME":"NOAA 20 (JPSS-1)","OBJECT_ID":"2017-073A","EPOCH":"2026-04-05T19:46:46.771680","MEAN_MOTION":14.19543528,"ECCENTRICITY":0.0002046,"INCLINATION":98.7725,"RA_OF_ASC_NODE":35.9469,"ARG_OF_PERICENTER":101.0324,"MEAN_ANOMALY":259.1082,"EPHEMERIS_TYPE":0,"CLASSIFICATION_TYPE":"U","NORAD_CAT_ID":43013,"ELEMENT_SET_NO":999,"REV_AT_EPOCH":43420,"BSTAR":7.2922e-5,"MEAN_MOTION_DOT":1.1e-6,"MEAN_MOTION_DDOT":0}]
